[{"OBJECT_NAME":"PROTOMETHEE","OBJECT_ID":"2023-174BT","EPOCH":"2026-03-09T23:28:08.029344","MEAN_MOTION":15.30202663,"ECCENTRICITY":0.00088339,"INCLINATION":97.3826,"RA_OF_ASC_NODE":147.9552,"ARG_OF_PERICENTER":148.5993,"MEAN_ANOMALY":211.5776,"EPHEMERIS_TYPE":0,"CLASSIFICATION_TYPE":"U","NORAD_CAT_ID":58321,"ELEMENT_SET_NO":999,"REV_AT_EPOCH":12979,"BSTAR":0.00015715731,"MEAN_MOTION_DOT":4.52e-5,"MEAN_MOTION_DDOT":0},{"OBJECT_NAME":"STARLINK-36034","OBJECT_ID":"2025-270X","EPOCH":"2026-03-09T23:10:18.322176","MEAN_MOTION":15.27584857,"ECCENTRICITY":0.00010445,"INCLINATION":43.0015,"RA_OF_ASC_NODE":54.9914,"ARG_OF_PERICENTER":215.0502,"MEAN_ANOMALY":145.0281,"EPHEMERIS_TYPE":0,"CLASSIFICATION_TYPE":"U","NORAD_CAT_ID":66609,"ELEMENT_SET_NO":999,"REV_AT_EPOCH":1758,"BSTAR":0.0010090645,"MEAN_MOTION_DOT":0.00027613,"MEAN_MOTION_DDOT":0}]
